{
  "norad_id": 65578,
  "name": "PRAETORIAN SDA_615",
  "history": [
    {
      "epoch": "2026-03-28T22:27:27.379584",
      "apogee_km": 955.6568146539721,
      "perigee_km": 940.8116816486927,
      "latitude_deg": 78.26792992903978,
      "longitude_deg": 107.63042176002637,
      "semi_major_axis_km": 7326.371248151332,
      "eccentricity": 0.00101313,
      "inclination_deg": 81.2983,
      "raan_deg": 84.9134,
      "arg_perigee_deg": 53.7178,
      "mean_anomaly_deg": 306.4913,
      "mean_motion_rev_day": 13.84424828
    },
    {
      "epoch": "2026-03-29T05:23:44.378880",
      "apogee_km": 955.6472554983429,
      "perigee_km": 940.8172188884155,
      "latitude_deg": 15.104262867262772,
      "longitude_deg": 135.38264319999143,
      "semi_major_axis_km": 7326.3692371933785,
      "eccentricity": 0.0010121,
      "inclination_deg": 81.2983,
      "raan_deg": 84.6455,
      "arg_perigee_deg": 53.0376,
      "mean_anomaly_deg": 307.1705,
      "mean_motion_rev_day": 13.84425398
    }
  ]
}